[{"OBJECT_NAME":"STARLINK-34007","OBJECT_ID":"2025-094E","EPOCH":"2026-03-09T20:31:26.186880","MEAN_MOTION":14.98405216,"ECCENTRICITY":0.00045816,"INCLINATION":70.0017,"RA_OF_ASC_NODE":234.2102,"ARG_OF_PERICENTER":277.8261,"MEAN_ANOMALY":82.2378,"EPHEMERIS_TYPE":0,"CLASSIFICATION_TYPE":"U","NORAD_CAT_ID":63868,"ELEMENT_SET_NO":999,"REV_AT_EPOCH":4722,"BSTAR":-0.00099610286,"MEAN_MOTION_DOT":-0.00011983,"MEAN_MOTION_DDOT":0},{"OBJECT_NAME":"FENGYUN 1C DEB","OBJECT_ID":"1999-025EUR","EPOCH":"2026-03-07T09:41:40.257024","MEAN_MOTION":14.25341338,"ECCENTRICITY":0.0346532,"INCLINATION":98.3608,"RA_OF_ASC_NODE":118.3108,"ARG_OF_PERICENTER":102.8707,"MEAN_ANOMALY":325.6511,"EPHEMERIS_TYPE":0,"CLASSIFICATION_TYPE":"U","NORAD_CAT_ID":38801,"ELEMENT_SET_NO":999,"REV_AT_EPOCH":65566,"BSTAR":0.00083362138,"MEAN_MOTION_DOT":3.651e-5,"MEAN_MOTION_DDOT":0}]
